{"type": "FeatureCollection", "features": [ {"type": "Feature", "properties": {"norad_id": 40938, "name": "BEIDOU-3S IGSO-2S (C56)", "group": "gnss", "lat": 40.60957730856431, "lon": -52.09823782128845, "alt_km": 35945.359406722375, "timestamp": "2025-12-26T08:37:54.823263+00:00", "meta": {"OBJECT_NAME": "BEIDOU-3S IGSO-2S (C56)", "OBJECT_ID": "2015-053A", "EPOCH": "2025-12-26T06:00:23.194944", "MEAN_MOTION": 1.00267028, "ECCENTRICITY": 0.0060661, "INCLINATION": 49.4896, "RA_OF_ASC_NODE": 260.8471, "ARG_OF_PERICENTER": 188.3782, "MEAN_ANOMALY": 191.6078, "EPHEMERIS_TYPE": 0, "CLASSIFICATION_TYPE": "U", "NORAD_CAT_ID": 40938, "ELEMENT_SET_NO": 999, "REV_AT_EPOCH": 3762, "BSTAR": 0, "MEAN_MOTION_DOT": -1.23e-06, "MEAN_MOTION_DDOT": 0}, "tle": {"line1": "1 40938U 15053A   25360.25026846 -.00000123  00000+0  00000+0 0  9992", "line2": "2 40938  49.4896 260.8471 0060661 188.3782 191.6078  1.00267028 37626"}}, "geometry": {"type": "Point", "coordinates": [-52.09823782128845, 40.60957730856431]}}, {"type": "Feature", "properties": {"norad_id": 41019, "name": "GPS BIIF-11 (PRN 10)", "group": "gnss", "lat": 47.91878566926784, "lon": 83.84859542043202, "alt_km": 20465.11895014028, "timestamp": "2025-12-26T08:37:54.823275+00:00", "meta": {"OBJECT_NAME": "GPS BIIF-11 (PRN 10)", "OBJECT_ID": "2015-062A", "EPOCH": "2025-12-25T18:32:56.825952", "MEAN_MOTION": 2.00567045, "ECCENTRICITY": 0.0111123, "INCLINATION": 56.8416, "RA_OF_ASC_NODE": 37.4983, "ARG_OF_PERICENTER": 230.2832, "MEAN_ANOMALY": 128.7928, "EPHEMERIS_TYPE": 0, "CLASSIFICATION_TYPE": "U", "NORAD_CAT_ID": 41019, "ELEMENT_SET_NO": 999, "REV_AT_EPOCH": 7435, "BSTAR": 0, "MEAN_MOTION_DOT": -4.8e-07, "MEAN_MOTION_DDOT": 0}, "tle": {"line1": "1 41019U 15062A   25359.77287993 -.00000048  00000+0  00000+0 0  9996", "line2": "2 41019  56.8416  37.4983 0111123 230.2832 128.7928  2.00567045 74355"}}, "geometry": {"type": "Point", "coordinates": [83.84859542043202, 47.91878566926784]}}, {"type": "Feature", "properties": {"norad_id": 41028, "name": "GSAT-15 (GAGAN/PRN 139)", "group": "gnss", "lat": -0.007552779244914872, "lon": -41.887053068142826, "alt_km": 35783.717785300694, "timestamp": "2025-12-26T08:37:54.823289+00:00", "meta": {"OBJECT_NAME": "GSAT-15 (GAGAN/PRN 139)", "OBJECT_ID": "2015-065A", "EPOCH": "2025-12-26T00:05:38.529888", "MEAN_MOTION": 1.00270739, "ECCENTRICITY": 0.0002404, "INCLINATION": 0.0162, "RA_OF_ASC_NODE": 309.5536, "ARG_OF_PERICENTER": 293.7172, "MEAN_ANOMALY": 306.4055, "EPHEMERIS_TYPE": 0, "CLASSIFICATION_TYPE": "U", "NORAD_CAT_ID": 41028, "ELEMENT_SET_NO": 999, "REV_AT_EPOCH": 3706, "BSTAR": 0, "MEAN_MOTION_DOT": -2.36e-06, "MEAN_MOTION_DDOT": 0}, "tle": {"line1": "1 41028U 15065A   25360.00391817 -.00000236  00000+0  00000+0 0  9997", "line2": "2 41028   0.0162 309.5536 0002404 293.7172 306.4055  1.00270739 37066"}}, "geometry": {"type": "Point", "coordinates": [-41.887053068142826, -0.007552779244914872]}}, {"type": "Feature", "properties": {"norad_id": 41174, "name": "GSAT0209 (GALILEO 12)", "group": "gnss", "lat": -34.18832390277769, "lon": -46.431771988519095, "alt_km": 23230.10412999426, "timestamp": "2025-12-26T08:37:54.823300+00:00", "meta": {"OBJECT_NAME": "GSAT0209 (GALILEO 12)", "OBJECT_ID": "2015-079A", "EPOCH": "2025-12-21T21:22:17.332896", "MEAN_MOTION": 1.70474556, "ECCENTRICITY": 0.00025231, "INCLINATION": 55.7178, "RA_OF_ASC_NODE": 106.13, "ARG_OF_PERICENTER": 342.7574, "MEAN_ANOMALY": 17.2091, "EPHEMERIS_TYPE": 0, "CLASSIFICATION_TYPE": "U", "NORAD_CAT_ID": 41174, "ELEMENT_SET_NO": 999, "REV_AT_EPOCH": 6175, "BSTAR": 0, "MEAN_MOTION_DOT": 5e-08, "MEAN_MOTION_DDOT": 0}, "tle": {"line1": "1 41174U 15079A   25355.89047839  .00000005  00000+0  00000+0 0  9990", "line2": "2 41174  55.7178 106.1300 0002523 342.7574  17.2091  1.70474556 61755"}}, "geometry": {"type": "Point", "coordinates": [-46.431771988519095, -34.18832390277769]}}, {"type": "Feature", "properties": {"norad_id": 41175, "name": "GSAT0208 (GALILEO 11)", "group": "gnss", "lat": 55.67320376633277, "lon": -168.00410431120076, "alt_km": 23216.599245134872, "timestamp": "2025-12-26T08:37:54.823311+00:00", "meta": {"OBJECT_NAME": "GSAT0208 (GALILEO 11)", "OBJECT_ID": "2015-079B", "EPOCH": "2025-12-24T10:58:05.169792", "MEAN_MOTION": 1.70474188, "ECCENTRICITY": 0.0001919, "INCLINATION": 55.7178, "RA_OF_ASC_NODE": 106.0566, "ARG_OF_PERICENTER": 349.2148, "MEAN_ANOMALY": 10.7717, "EPHEMERIS_TYPE": 0, "CLASSIFICATION_TYPE": "U", "NORAD_CAT_ID": 41175, "ELEMENT_SET_NO": 999, "REV_AT_EPOCH": 6221, "BSTAR": 0, "MEAN_MOTION_DOT": 1.6e-07, "MEAN_MOTION_DDOT": 0}, "tle": {"line1": "1 41175U 15079B   25358.45700428  .00000016  00000+0  00000+0 0  9998", "line2": "2 41175  55.7178 106.0566 0001919 349.2148  10.7717  1.70474188 62212"}}, "geometry": {"type": "Point", "coordinates": [-168.00410431120076, 55.67320376633277]}}, {"type": "Feature", "properties": {"norad_id": 41241, "name": "IRNSS-1E", "group": "gnss", "lat": -32.775799435201584, "lon": -22.72846236073284, "alt_km": 35783.2702929907, "timestamp": "2025-12-26T08:37:54.823322+00:00", "meta": {"OBJECT_NAME": "IRNSS-1E", "OBJECT_ID": "2016-003A", "EPOCH": "2025-12-24T15:55:26.719680", "MEAN_MOTION": 1.0026854, "ECCENTRICITY": 0.00215442, "INCLINATION": 32.8513, "RA_OF_ASC_NODE": 62.279, "ARG_OF_PERICENTER": 188.9872, "MEAN_ANOMALY": 192.7105, "EPHEMERIS_TYPE": 0, "CLASSIFICATION_TYPE": "U", "NORAD_CAT_ID": 41241, "ELEMENT_SET_NO": 999, "REV_AT_EPOCH": 3633, "BSTAR": 0, "MEAN_MOTION_DOT": -2.92e-06, "MEAN_MOTION_DDOT": 0}, "tle": {"line1": "1 41241U 16003A   25358.66350370 -.00000292  00000+0  00000+0 0  9997", "line2": "2 41241  32.8513  62.2790 0021544 188.9872 192.7105  1.00268540 36337"}}, "geometry": {"type": "Point", "coordinates": [-22.72846236073284, -32.775799435201584]}}, {"type": "Feature", "properties": {"norad_id": 41328, "name": "GPS BIIF-12 (PRN 32)", "group": "gnss", "lat": 3.1419461899712156, "lon": 98.48831151369549, "alt_km": 20303.84306294418, "timestamp": "2025-12-26T08:37:54.823334+00:00", "meta": {"OBJECT_NAME": "GPS BIIF-12 (PRN 32)", "OBJECT_ID": "2016-007A", "EPOCH": "2025-12-25T20:32:16.173600", "MEAN_MOTION": 2.00559967, "ECCENTRICITY": 0.0092825, "INCLINATION": 55.4133, "RA_OF_ASC_NODE": 96.3364, "ARG_OF_PERICENTER": 243.9275, "MEAN_ANOMALY": 115.1304, "EPHEMERIS_TYPE": 0, "CLASSIFICATION_TYPE": "U", "NORAD_CAT_ID": 41328, "ELEMENT_SET_NO": 999, "REV_AT_EPOCH": 7236, "BSTAR": 0, "MEAN_MOTION_DOT": 1.1e-07, "MEAN_MOTION_DDOT": 0}, "tle": {"line1": "1 41328U 16007A   25359.85574275  .00000011  00000+0  00000+0 0  9999", "line2": "2 41328  55.4133  96.3364 0092825 243.9275 115.1304  2.00559967 72366"}}, "geometry": {"type": "Point", "coordinates": [98.48831151369549, 3.1419461899712156]}}, {"type": "Feature", "properties": {"norad_id": 41330, "name": "COSMOS 2514 (751)", "group": "gnss", "lat": 2.2390831593784264, "lon": 137.88528001555207, "alt_km": 19108.435129103895, "timestamp": "2025-12-26T08:37:54.823348+00:00", "meta": {"OBJECT_NAME": "COSMOS 2514 (751)", "OBJECT_ID": "2016-008A", "EPOCH": "2025-12-26T03:04:27.973056", "MEAN_MOTION": 2.13102553, "ECCENTRICITY": 0.001154, "INCLINATION": 65.126, "RA_OF_ASC_NODE": 318.9457, "ARG_OF_PERICENTER": 220.0269, "MEAN_ANOMALY": 139.8925, "EPHEMERIS_TYPE": 0, "CLASSIFICATION_TYPE": "U", "NORAD_CAT_ID": 41330, "ELEMENT_SET_NO": 999, "REV_AT_EPOCH": 7693, "BSTAR": 0, "MEAN_MOTION_DOT": -3.4e-07, "MEAN_MOTION_DDOT": 0}, "tle": {"line1": "1 41330U 16008A   25360.12810154 -.00000034  00000+0  00000+0 0  9990", "line2": "2 41330  65.1260 318.9457 0011540 220.0269 139.8925  2.13102553 76936"}}, "geometry": {"type": "Point", "coordinates": [137.88528001555207, 2.2390831593784264]}}, {"type": "Feature", "properties": {"norad_id": 41384, "name": "IRNSS-1F", "group": "gnss", "lat": 1.974826792207335, "lon": -102.88802527481613, "alt_km": 35697.652258487855, "timestamp": "2025-12-26T08:37:54.823362+00:00", "meta": {"OBJECT_NAME": "IRNSS-1F", "OBJECT_ID": "2016-015A", "EPOCH": "2025-12-24T23:31:33.658752", "MEAN_MOTION": 1.00278532, "ECCENTRICITY": 0.00226614, "INCLINATION": 4.9118, "RA_OF_ASC_NODE": 100.9953, "ARG_OF_PERICENTER": 182.2729, "MEAN_ANOMALY": 195.8977, "EPHEMERIS_TYPE": 0, "CLASSIFICATION_TYPE": "U", "NORAD_CAT_ID": 41384, "ELEMENT_SET_NO": 999, "REV_AT_EPOCH": 3592, "BSTAR": 0, "MEAN_MOTION_DOT": 1.78e-06, "MEAN_MOTION_DDOT": 0}, "tle": {"line1": "1 41384U 16015A   25358.98025068  .00000178  00000+0  00000+0 0  9998", "line2": "2 41384   4.9118 100.9953 0022661 182.2729 195.8977  1.00278532 35923"}}, "geometry": {"type": "Point", "coordinates": [-102.88802527481613, 1.974826792207335]}}, {"type": "Feature", "properties": {"norad_id": 41434, "name": "BEIDOU-2 IGSO-6 (C13)", "group": "gnss", "lat": -58.77994421328206, "lon": -32.65837412043675, "alt_km": 35615.824760514384, "timestamp": "2025-12-26T08:37:54.823376+00:00", "meta": {"OBJECT_NAME": "BEIDOU-2 IGSO-6 (C13)", "OBJECT_ID": "2016-021A", "EPOCH": "2025-12-25T02:21:14.682240", "MEAN_MOTION": 1.00290736, "ECCENTRICITY": 0.00608236, "INCLINATION": 59.9818, "RA_OF_ASC_NODE": 39.7747, "ARG_OF_PERICENTER": 230.5129, "MEAN_ANOMALY": 312.5474, "EPHEMERIS_TYPE": 0, "CLASSIFICATION_TYPE": "U", "NORAD_CAT_ID": 41434, "ELEMENT_SET_NO": 999, "REV_AT_EPOCH": 3573, "BSTAR": 0, "MEAN_MOTION_DOT": -1.35e-06, "MEAN_MOTION_DDOT": 0}, "tle": {"line1": "1 41434U 16021A   25359.09808660 -.00000135  00000+0  00000+0 0  9995", "line2": "2 41434  59.9818  39.7747 0060823 230.5129 312.5474  1.00290736 35738"}}, "geometry": {"type": "Point", "coordinates": [-32.65837412043675, -58.77994421328206]}}]}